{"type": "FeatureCollection", "features": [ {"type": "Feature", "properties": {"norad_id": 34823, "name": "COSMOS 2251 DEB", "group": "cosmos-2251-debris", "lat": 45.2035305290444, "lon": -105.96366154855235, "alt_km": 622.8060094210832, "timestamp": "2025-12-18T19:29:52.937539+00:00", "meta": {"OBJECT_NAME": "COSMOS 2251 DEB", "OBJECT_ID": "1993-036ABN", "EPOCH": "2025-12-17T16:29:01.822560", "MEAN_MOTION": 14.54962902, "ECCENTRICITY": 0.01543529, "INCLINATION": 74.0424, "RA_OF_ASC_NODE": 92.9148, "ARG_OF_PERICENTER": 176.4751, "MEAN_ANOMALY": 183.7542, "EPHEMERIS_TYPE": 0, "CLASSIFICATION_TYPE": "U", "NORAD_CAT_ID": 34823, "ELEMENT_SET_NO": 999, "REV_AT_EPOCH": 88453, "BSTAR": 0.00051395054, "MEAN_MOTION_DOT": 2.564e-05, "MEAN_MOTION_DDOT": 0}, "tle": {"line1": "1 34823U 93036ABN 25351.68682665  .00002564  00000+0  51395-3 0  9996", "line2": "2 34823  74.0424  92.9148 0154352 176.4751 183.7542 14.54962902884537"}}, "geometry": {"type": "Point", "coordinates": [-105.96366154855235, 45.2035305290444]}}, {"type": "Feature", "properties": {"norad_id": 34845, "name": "COSMOS 2251 DEB", "group": "cosmos-2251-debris", "lat": -72.64295626431215, "lon": 23.43863550091181, "alt_km": 732.7375223801473, "timestamp": "2025-12-18T19:29:52.937549+00:00", "meta": {"OBJECT_NAME": "COSMOS 2251 DEB", "OBJECT_ID": "1993-036ABP", "EPOCH": "2025-12-18T03:20:16.618272", "MEAN_MOTION": 14.45869846, "ECCENTRICITY": 0.00226187, "INCLINATION": 74.0247, "RA_OF_ASC_NODE": 138.2724, "ARG_OF_PERICENTER": 298.416, "MEAN_ANOMALY": 61.4719, "EPHEMERIS_TYPE": 0, "CLASSIFICATION_TYPE": "U", "NORAD_CAT_ID": 34845, "ELEMENT_SET_NO": 999, "REV_AT_EPOCH": 87544, "BSTAR": 0.00023548418, "MEAN_MOTION_DOT": 8.12e-06, "MEAN_MOTION_DDOT": 0}, "tle": {"line1": "1 34845U 93036ABP 25352.13908123  .00000812  00000+0  23548-3 0  9994", "line2": "2 34845  74.0247 138.2724 0022618 298.4160  61.4719 14.45869846875447"}}, "geometry": {"type": "Point", "coordinates": [23.43863550091181, -72.64295626431215]}}, {"type": "Feature", "properties": {"norad_id": 34846, "name": "COSMOS 2251 DEB", "group": "cosmos-2251-debris", "lat": -49.38897025615139, "lon": 89.92856808634913, "alt_km": 739.1351784327235, "timestamp": "2025-12-18T19:29:52.937559+00:00", "meta": {"OBJECT_NAME": "COSMOS 2251 DEB", "OBJECT_ID": "1993-036ABQ", "EPOCH": "2025-12-17T20:51:35.450784", "MEAN_MOTION": 14.47244487, "ECCENTRICITY": 0.00261793, "INCLINATION": 74.0309, "RA_OF_ASC_NODE": 252.1826, "ARG_OF_PERICENTER": 317.9376, "MEAN_ANOMALY": 41.9772, "EPHEMERIS_TYPE": 0, "CLASSIFICATION_TYPE": "U", "NORAD_CAT_ID": 34846, "ELEMENT_SET_NO": 999, "REV_AT_EPOCH": 87478, "BSTAR": 0.00058072319, "MEAN_MOTION_DOT": 2.105e-05, "MEAN_MOTION_DDOT": 0}, "tle": {"line1": "1 34846U 93036ABQ 25351.86916031  .00002105  00000+0  58072-3 0  9998", "line2": "2 34846  74.0309 252.1826 0026179 317.9376  41.9772 14.47244487874786"}}, "geometry": {"type": "Point", "coordinates": [89.92856808634913, -49.38897025615139]}}, {"type": "Feature", "properties": {"norad_id": 34852, "name": "COSMOS 2251 DEB", "group": "cosmos-2251-debris", "lat": 68.37451242568258, "lon": -61.9581007132549, "alt_km": 759.6995254251215, "timestamp": "2025-12-18T19:29:52.937569+00:00", "meta": {"OBJECT_NAME": "COSMOS 2251 DEB", "OBJECT_ID": "1993-036ABW", "EPOCH": "2025-12-16T01:59:18.966624", "MEAN_MOTION": 14.3700768, "ECCENTRICITY": 0.00163324, "INCLINATION": 74.0328, "RA_OF_ASC_NODE": 256.8235, "ARG_OF_PERICENTER": 359.1989, "MEAN_ANOMALY": 0.9135, "EPHEMERIS_TYPE": 0, "CLASSIFICATION_TYPE": "U", "NORAD_CAT_ID": 34852, "ELEMENT_SET_NO": 999, "REV_AT_EPOCH": 87582, "BSTAR": 0.00011051411, "MEAN_MOTION_DOT": 3.02e-06, "MEAN_MOTION_DDOT": 0}, "tle": {"line1": "1 34852U 93036ABW 25350.08285841  .00000302  00000+0  11051-3 0  9999", "line2": "2 34852  74.0328 256.8235 0016332 359.1989   0.9135 14.37007680875822"}}, "geometry": {"type": "Point", "coordinates": [-61.9581007132549, 68.37451242568258]}}, {"type": "Feature", "properties": {"norad_id": 34854, "name": "COSMOS 2251 DEB", "group": "cosmos-2251-debris", "lat": 52.68229969265041, "lon": -55.390369396090556, "alt_km": 665.9677849707778, "timestamp": "2025-12-18T19:29:52.937579+00:00", "meta": {"OBJECT_NAME": "COSMOS 2251 DEB", "OBJECT_ID": "1993-036ABY", "EPOCH": "2025-12-17T03:54:33.341760", "MEAN_MOTION": 14.76668527, "ECCENTRICITY": 0.00660904, "INCLINATION": 74.0279, "RA_OF_ASC_NODE": 149.9114, "ARG_OF_PERICENTER": 260.7011, "MEAN_ANOMALY": 98.6686, "EPHEMERIS_TYPE": 0, "CLASSIFICATION_TYPE": "U", "NORAD_CAT_ID": 34854, "ELEMENT_SET_NO": 999, "REV_AT_EPOCH": 71947, "BSTAR": 0.00058059968, "MEAN_MOTION_DOT": 4.175e-05, "MEAN_MOTION_DDOT": 0}, "tle": {"line1": "1 34854U 93036ABY 25351.16288590  .00004175  00000+0  58060-3 0  9998", "line2": "2 34854  74.0279 149.9114 0066090 260.7011  98.6686 14.76668527719475"}}, "geometry": {"type": "Point", "coordinates": [-55.390369396090556, 52.68229969265041]}}, {"type": "Feature", "properties": {"norad_id": 34856, "name": "COSMOS 2251 DEB", "group": "cosmos-2251-debris", "lat": 52.69833692752397, "lon": -129.7698078161939, "alt_km": 540.1559338404577, "timestamp": "2025-12-18T19:29:52.937589+00:00", "meta": {"OBJECT_NAME": "COSMOS 2251 DEB", "OBJECT_ID": "1993-036ACA", "EPOCH": "2025-12-18T06:28:36.328224", "MEAN_MOTION": 15.06351837, "ECCENTRICITY": 0.00322008, "INCLINATION": 73.998, "RA_OF_ASC_NODE": 73.4749, "ARG_OF_PERICENTER": 210.7387, "MEAN_ANOMALY": 212.757, "EPHEMERIS_TYPE": 0, "CLASSIFICATION_TYPE": "U", "NORAD_CAT_ID": 34856, "ELEMENT_SET_NO": 999, "REV_AT_EPOCH": 89195, "BSTAR": 0.0015696313, "MEAN_MOTION_DOT": 0.00023408, "MEAN_MOTION_DDOT": 0}, "tle": {"line1": "1 34856U 93036ACA 25352.26986491  .00023408  00000+0  15696-2 0  9994", "line2": "2 34856  73.9980  73.4749 0032200 210.7387 212.7570 15.06351837891958"}}, "geometry": {"type": "Point", "coordinates": [-129.7698078161939, 52.69833692752397]}}, {"type": "Feature", "properties": {"norad_id": 34857, "name": "COSMOS 2251 DEB", "group": "cosmos-2251-debris", "lat": -0.6612244109103773, "lon": -84.56340666054454, "alt_km": 662.5414939666807, "timestamp": "2025-12-18T19:29:52.937599+00:00", "meta": {"OBJECT_NAME": "COSMOS 2251 DEB", "OBJECT_ID": "1993-036ACB", "EPOCH": "2025-12-17T13:07:27.079680", "MEAN_MOTION": 14.58941212, "ECCENTRICITY": 0.00656795, "INCLINATION": 74.0163, "RA_OF_ASC_NODE": 97.66, "ARG_OF_PERICENTER": 221.2744, "MEAN_ANOMALY": 155.4118, "EPHEMERIS_TYPE": 0, "CLASSIFICATION_TYPE": "U", "NORAD_CAT_ID": 34857, "ELEMENT_SET_NO": 999, "REV_AT_EPOCH": 87971, "BSTAR": 0.00084400189, "MEAN_MOTION_DOT": 4.049e-05, "MEAN_MOTION_DDOT": 0}, "tle": {"line1": "1 34857U 93036ACB 25351.54684120  .00004049  00000+0  84400-3 0  9999", "line2": "2 34857  74.0163  97.6600 0065679 221.2744 155.4118 14.58941212879717"}}, "geometry": {"type": "Point", "coordinates": [-84.56340666054454, -0.6612244109103773]}}, {"type": "Feature", "properties": {"norad_id": 34859, "name": "COSMOS 2251 DEB", "group": "cosmos-2251-debris", "lat": -69.08481937223851, "lon": -81.52888587025629, "alt_km": 525.5921537901922, "timestamp": "2025-12-18T19:29:52.937609+00:00", "meta": {"OBJECT_NAME": "COSMOS 2251 DEB", "OBJECT_ID": "1993-036ACD", "EPOCH": "2025-12-17T21:46:30.925632", "MEAN_MOTION": 15.15567262, "ECCENTRICITY": 0.00019039, "INCLINATION": 74.0273, "RA_OF_ASC_NODE": 328.9017, "ARG_OF_PERICENTER": 8.3099, "MEAN_ANOMALY": 18.9856, "EPHEMERIS_TYPE": 0, "CLASSIFICATION_TYPE": "U", "NORAD_CAT_ID": 34859, "ELEMENT_SET_NO": 999, "REV_AT_EPOCH": 88437, "BSTAR": 0.0037427526, "MEAN_MOTION_DOT": 0.00071712, "MEAN_MOTION_DDOT": 0}, "tle": {"line1": "1 34859U 93036ACD 25351.90730238  .00071712  00000+0  37428-2 0  9991", "line2": "2 34859  74.0273 328.9017 0001903   8.3099  18.9856 15.15567262884373"}}, "geometry": {"type": "Point", "coordinates": [-81.52888587025629, -69.08481937223851]}}, {"type": "Feature", "properties": {"norad_id": 34861, "name": "COSMOS 2251 DEB", "group": "cosmos-2251-debris", "lat": -72.3662167034131, "lon": -25.91437478005687, "alt_km": 566.6749925057993, "timestamp": "2025-12-18T19:29:52.937619+00:00", "meta": {"OBJECT_NAME": "COSMOS 2251 DEB", "OBJECT_ID": "1993-036ACF", "EPOCH": "2025-12-18T04:10:15.849120", "MEAN_MOTION": 15.02898135, "ECCENTRICITY": 0.00075092, "INCLINATION": 74.0201, "RA_OF_ASC_NODE": 39.748, "ARG_OF_PERICENTER": 30.036, "MEAN_ANOMALY": 33.8022, "EPHEMERIS_TYPE": 0, "CLASSIFICATION_TYPE": "U", "NORAD_CAT_ID": 34861, "ELEMENT_SET_NO": 999, "REV_AT_EPOCH": 88174, "BSTAR": 0.0018247535, "MEAN_MOTION_DOT": 0.00024553, "MEAN_MOTION_DDOT": 0}, "tle": {"line1": "1 34861U 93036ACF 25352.17379455  .00024553  00000+0  18248-2 0  9994", "line2": "2 34861  74.0201  39.7480 0007509  30.0360  33.8022 15.02898135881740"}}, "geometry": {"type": "Point", "coordinates": [-25.91437478005687, -72.3662167034131]}}, {"type": "Feature", "properties": {"norad_id": 34874, "name": "COSMOS 2251 DEB", "group": "cosmos-2251-debris", "lat": -37.07597997889836, "lon": -104.89829671072768, "alt_km": 801.1462310278694, "timestamp": "2025-12-18T19:29:52.937628+00:00", "meta": {"OBJECT_NAME": "COSMOS 2251 DEB", "OBJECT_ID": "1993-036ACM", "EPOCH": "2025-12-18T05:16:07.087872", "MEAN_MOTION": 14.36335235, "ECCENTRICITY": 0.00507834, "INCLINATION": 74.0398, "RA_OF_ASC_NODE": 63.7014, "ARG_OF_PERICENTER": 87.2898, "MEAN_ANOMALY": 306.5232, "EPHEMERIS_TYPE": 0, "CLASSIFICATION_TYPE": "U", "NORAD_CAT_ID": 34874, "ELEMENT_SET_NO": 999, "REV_AT_EPOCH": 87123, "BSTAR": 0.00060790566, "MEAN_MOTION_DOT": 1.779e-05, "MEAN_MOTION_DDOT": 0}, "tle": {"line1": "1 34874U 93036ACM 25352.21952648  .00001779  00000+0  60791-3 0  9990", "line2": "2 34874  74.0398  63.7014 0050783  87.2898 306.5232 14.36335235871232"}}, "geometry": {"type": "Point", "coordinates": [-104.89829671072768, -37.07597997889836]}}]}